KUIPER-00075            
1 64822U 25151G   26059.83020641  .00038738  00000+0  91601-3 0  9990
2 64822  51.8709 264.9000 0004297 233.0833 126.9762 15.41430768 35032
KUIPER-00076            
1 64823U 25151H   26060.04934426  .00005699  00000+0  76721-3 0  9997
2 64823  51.9018 331.2186 0000482 342.5950  17.4996 14.80416914 34130
KUIPER-00077            
1 64824U 25151J   26059.98311738  .00005344  00000+0  72673-3 0  9993
2 64824  51.9031 336.5916 0001186 176.9652 183.1318 14.80090358 34055
KUIPER-00078            
1 64825U 25151K   26060.15537267  .00005578  00000+0  75993-3 0  9999
2 64825  51.9022 333.3265 0000802  90.4544 269.6511 14.79943252 34112
KUIPER-00079            
1 64826U 25151L   26060.18363554  .00001446  00000+0  21853-3 0  9995
2 64826  51.9014 338.1759 0000717  92.9326 267.1719 14.79943890 35241
KUIPER-00080            
1 64827U 25151M   26060.14997774  .00005858  00000+0  79651-3 0  9999
2 64827  51.9008 338.3333 0000881  85.1745 274.9318 14.79946309 34042
KUIPER-00082            
1 64828U 25151N   26060.12967739  .00005340  00000+0  72837-3 0  9991
2 64828  51.9029 325.9533 0000747 106.1547 253.9498 14.79967365 34215
KUIPER-00083            
1 64829U 25151P   26060.18915853 -.00002900  00000+0 -35140-3 0  9995
2 64829  51.9036 333.1788 0000980  66.8572 293.2494 14.79954659 35302
KUIPER-00084            
1 64830U 25151Q   26059.97571654  .00000974  00000+0  15674-3 0  9996
2 64830  51.9033 344.1062 0001045 186.8930 173.2018 14.79942244 33946
KUIPER-00085            
1 64831U 25151R   26060.09594749 -.00000023  00000+0  26021-4 0  9997
2 64831  51.9034 326.1281 0000798  82.0536 278.0517 14.79935172 34204
KUIPER-00086            
1 64832U 25151S   26060.15271005  .00060867  00000+0  79562-2 0  9999
2 64832  51.9028 335.8491 0001468  83.1159 276.9970 14.79852616 34072
KUIPER-00087            
1 64833U 25151T   26059.90221854  .00004432  00000+0  61765-3 0  9991
2 64833  51.9005 319.4470 0000760  98.1661 261.9387 14.79403208 34278
KUIPER-00089            
1 64834U 25151U   26060.09689836 -.00013481  00000+0 -17432-2 0  9999
2 64834  51.9014 323.5695 0000685  85.3088 274.7952 14.79927747 34247
KUIPER-00090            
1 64835U 25151V   26060.10672058 -.00002029  00000+0 -23716-3 0  9999
2 64835  51.8995 316.0774 0000632 117.5144 242.5883 14.79941657 34346
KUIPER-00091            
1 64836U 25151W   26060.16911795  .00005137  00000+0  70495-3 0  9997
2 64836  51.9026 320.7786 0001078 107.0003 253.1078 14.79777313 34284
KUIPER-00092            
1 64837U 25151X   26059.95818942  .00000882  00000+0  14464-3 0  9999
2 64837  51.9023 329.2065 0000886  94.3053 265.8011 14.79936270 35361
KUIPER-00093            
1 64838U 25151Y   26060.15804741  .00005378  00000+0  73327-3 0  9994
2 64838  51.9009 330.8042 0000920  90.8827 269.2241 14.79969250 34140
KUIPER-00094            
1 64839U 25151Z   26060.07524085 -.00019167  00000+0 -13462-2 0  9992
2 64839  51.8902 301.9485 0004911 262.9864  97.0550 15.04243385 34546
KUIPER-00081            
1 65132U 25171A   26060.34819433  .00005663  00000+0  77088-3 0  9994
2 65132  51.8990 184.9582 0000471 118.9846 241.1163 14.79949293 31804
KUIPER-00088            
1 65133U 25171B   26059.10027819 -.00047664  00000+0 -60573-2 0  9995
2 65133  51.8983 207.8444 0000753 265.1828  94.9049 14.81359166 31373
KUIPER-00095            
1 65134U 25171C   26060.49574979  .00018725  00000+0  26459-2 0  9993
2 65134  51.8955 181.9835 0000198 128.8060 231.2919 14.77156412 31854
KUIPER-00096            
1 65135U 25171D   26060.37121322  .00005596  00000+0  76234-3 0  9990
2 65135  51.8989 194.8668 0000771 140.6454 219.4564 14.79940627 31669
KUIPER-00097            
1 65136U 25171E   26060.36851639  .00005285  00000+0  72168-3 0  9998
2 65136  51.8997 197.5050 0000375 121.9079 238.1920 14.79936032 31613
KUIPER-00098            
1 65137U 25171F   26060.43336610  .00004922  00000+0  67428-3 0  9994
2 65137  51.8986 199.5969 0002055 135.6731 224.4396 14.79925384 30945
KUIPER-00099            
1 65138U 25171G   26060.41099715  .00005633  00000+0  76938-3 0  9991
2 65138  51.9017 189.6849 0000484  55.7363 304.3645 14.79816927 31731
KUIPER-00100            
1 65139U 25171H   26060.51437339  .00005734  00000+0  78030-3 0  9998
2 65139  51.9001 186.7028 0000470  91.3735 268.7281 14.79945903 31787
KUIPER-00102            
1 65140U 25171J   26060.51165971  .00005777  00000+0  78609-3 0  9999
2 65140  51.8969 189.2415 0000671  94.9940 265.1099 14.79937730 31742
KUIPER-00103            
1 65141U 25171K   26060.45911500  .00004941  00000+0  67630-3 0  9994
2 65141  51.8968 206.9657 0002368 118.9876 241.1324 14.79955754 31490
KUIPER-00104            
1 65142U 25171L   26060.40491994  .00005451  00000+0  74271-3 0  9996
2 65142  51.8990 194.6642 0000387  58.8280 301.2720 14.79973241 31661
KUIPER-00105            
1 65143U 25171M   26060.43045451  .00005141  00000+0  70035-3 0  9993
2 65143  51.8986 202.1731 0000506  95.5122 264.5898 14.80085321 31568
